ONEWEB-0045             
1 45151U 20008W   24121.16437494 -.00000138  00000+0 -42596-3 0  9996
2 45151  87.9001 175.8020 0002106 102.0774 258.0590 13.11415770209219
ONEWEB-0047             
1 45152U 20008X   24121.21889594 -.00000610  00000+0 -17835-2 0  9997
2 45152  87.8983 190.8956 0001992 100.1783 259.9569 13.10370989207107
ONEWEB-0048             
1 45153U 20008Y   24121.44299480 -.00000459  00000+0 -13512-2 0  9991
2 45153  87.8983 190.8660 0002022  98.8680 261.2676 13.10370300206723
ONEWEB-0049             
1 45154U 20008Z   24120.91015043 -.00000650  00000+0 -18977-2 0  9997
2 45154  87.8988 190.9489 0002107  84.7683 275.3685 13.10371038206107
ONEWEB-0051             
1 45155U 20008AA  24120.85755911 -.00000161  00000+0 -49024-3 0  9991
2 45155  87.8999 175.9040 0002259 101.8858 258.2523 13.11416198209853
ONEWEB-0052             
1 45156U 20008AB  24121.44134166 -.00000405  00000+0 -11967-2 0  9996
2 45156  87.8979 190.8190 0001963  84.6764 275.4587 13.10370320206841
ONEWEB-0053             
1 45157U 20008AC  24121.19401966  .00000447  00000+0  12429-2 0  9992
2 45157  87.8980 190.9193 0002009  96.3416 263.7940 13.10369506206784
ONEWEB-0054             
1 45158U 20008AD  24121.22887920 -.00000528  00000+0 -15495-2 0  9993
2 45158  87.8985 190.8951 0002163 101.0086 259.1284 13.10376598206902
